start=new Date('2022-01-05T00:00:00.000Z').valueOf();
sats=[{"PERIAPSIS":"546.235","REV_AT_EPOCH":"5011","ARG_OF_PERICENTER":"72.3268","PERIOD":"95.592","RA_OF_ASC_NODE":"77.6179","RCS_SIZE":"LARGE","CENTER_NAME":"EARTH","SEMIMAJOR_AXIS":"6925.341","MEAN_ANOMALY":"287.7874","TLE_LINE2":"2 47667  53.0555  77.6179 0001403  72.3268 287.7874 15.06402367 50112","ELEMENT_SET_NO":"999","MEAN_MOTION_DOT":"0.00000595","APOAPSIS":"548.178","SITE":"AFETR","MEAN_MOTION_DDOT":"0.0000000000000","REF_FRAME":"TEME","OBJECT_TYPE":"PAYLOAD","TIME_SYSTEM":"UTC","OBJECT_ID":"2021-012AZ","EPOCH":"2022-01-04T16:32:52.050048","FILE":"3264067","NORAD_CAT_ID":"47667","EPHEMERIS_TYPE":"0","GP_ID":"193214783","MEAN_MOTION":"15.06402367","CLASSIFICATION_TYPE":"U","COUNTRY_CODE":"US","LAUNCH_DATE":"2021-02-16","DECAY_DATE":null,"ECCENTRICITY":"0.00014030","INCLINATION":"53.0555","OBJECT_NAME":"STARLINK-2058","BSTAR":"0.00005881000000","MEAN_ELEMENT_THEORY":"SGP4","TLE_LINE1":"1 47667U 21012AZ  22004.68949132  .00000595  00000-0  58810-4 0  9991"},{"OBJECT_TYPE":"PAYLOAD","MEAN_MOTION_DDOT":"0.0000000000000","REF_FRAME":"TEME","SITE":"AFETR","ELEMENT_SET_NO":"999","MEAN_MOTION_DOT":"-0.00000754","APOAPSIS":"547.962","MEAN_ANOMALY":"285.6809","TLE_LINE2":"2 47668  53.0545  58.6188 0001067  74.4298 285.6809 15.06396807 50388","CENTER_NAME":"EARTH","SEMIMAJOR_AXIS":"6925.358","RA_OF_ASC_NODE":"58.6188","PERIOD":"95.592","RCS_SIZE":"LARGE","PERIAPSIS":"546.484","REV_AT_EPOCH":"5038","ARG_OF_PERICENTER":"74.4298","MEAN_ELEMENT_THEORY":"SGP4","TLE_LINE1":"1 47668U 21012BA  22004.46649720 -.00000754  00000-0 -31765-4 0  9997","BSTAR":"-0.00003176500000","ECCENTRICITY":"0.00010670","INCLINATION":"53.0545","OBJECT_NAME":"STARLINK-2059","LAUNCH_DATE":"2021-02-16","COUNTRY_CODE":"US","DECAY_DATE":null,"EPHEMERIS_TYPE":"0","NORAD_CAT_ID":"47668","MEAN_MOTION":"15.06396807","GP_ID":"193179929","CLASSIFICATION_TYPE":"U","FILE":"3263295","TIME_SYSTEM":"UTC","OBJECT_ID":"2021-012BA","EPOCH":"2022-01-04T11:11:45.358080"},{"OBJECT_NAME":"STARLINK-2060","INCLINATION":"53.0559","ECCENTRICITY":"0.00016530","DECAY_DATE":null,"COUNTRY_CODE":"US","LAUNCH_DATE":"2021-02-16","TLE_LINE1":"1 47669U 21012BB  22004.91667824  .00027202  00000-0  18388-2 0  9992","MEAN_ELEMENT_THEORY":"SGP4","BSTAR":"0.00183880000000","TIME_SYSTEM":"UTC","OBJECT_ID":"2021-012BB","EPOCH":"2022-01-04T22:00:00.999936","GP_ID":"193190440","MEAN_MOTION":"15.06384414","CLASSIFICATION_TYPE":"U","NORAD_CAT_ID":"47669","EPHEMERIS_TYPE":"0","FILE":"3263837","SITE":"AFETR","MEAN_MOTION_DOT":"0.00027202","APOAPSIS":"548.406","ELEMENT_SET_NO":"999","OBJECT_TYPE":"PAYLOAD","MEAN_MOTION_DDOT":"0.0000000000000","REF_FRAME":"TEME","PERIOD":"95.593","RA_OF_ASC_NODE":"341.5846","RCS_SIZE":"MEDIUM","REV_AT_EPOCH":"5097","ARG_OF_PERICENTER":"68.5995","PERIAPSIS":"546.117","MEAN_ANOMALY":"211.8559","TLE_LINE2":"2 47669  53.0559 341.5846 0001653  68.5995 211.8559 15.06384414 50977","SEMIMAJOR_AXIS":"6925.396","CENTER_NAME":"EARTH"},{"COUNTRY_CODE":"US","LAUNCH_DATE":"2021-02-16","DECAY_DATE":null,"ECCENTRICITY":"0.00050610","OBJECT_NAME":"STARLINK-2062","INCLINATION":"53.0556","BSTAR":"0.00009746100000","MEAN_ELEMENT_THEORY":"SGP4","TLE_LINE1":"1 47670U 21012BC  22004.41489275  .00001170  00000-0  97461-4 0  9998","OBJECT_ID":"2021-012BC","EPOCH":"2022-01-04T09:57:26.733600","TIME_SYSTEM":"UTC","FILE":"3263295","NORAD_CAT_ID":"47670","EPHEMERIS_TYPE":"0","GP_ID":"193180931","MEAN_MOTION":"15.06406284","CLASSIFICATION_TYPE":"U","ELEMENT_SET_NO":"999","APOAPSIS":"550.699","MEAN_MOTION_DOT":"0.00001170","SITE":"AFETR","REF_FRAME":"TEME","MEAN_MOTION_DDOT":"0.0000000000000","OBJECT_TYPE":"PAYLOAD","PERIAPSIS":"543.689","ARG_OF_PERICENTER":"176.7582","REV_AT_EPOCH":"5036","RCS_SIZE":"LARGE","RA_OF_ASC_NODE":"58.8324","PERIOD":"95.592","CENTER_NAME":"EARTH","SEMIMAJOR_AXIS":"6925.329","TLE_LINE2":"2 47670  53.0556  58.8324 0005061 176.7582 183.3441 15.06406284 50362","MEAN_ANOMALY":"183.3441"},{"CENTER_NAME":"EARTH","SEMIMAJOR_AXIS":"6925.373","TLE_LINE2":"2 47671  53.0562  58.6395 0001415  88.9065 271.2086 15.06392072 50388","MEAN_ANOMALY":"271.2086","PERIAPSIS":"546.258","ARG_OF_PERICENTER":"88.9065","REV_AT_EPOCH":"5038","RCS_SIZE":"LARGE","PERIOD":"95.593","RA_OF_ASC_NODE":"58.6395","REF_FRAME":"TEME","MEAN_MOTION_DDOT":"0.0000000000000","OBJECT_TYPE":"PAYLOAD","ELEMENT_SET_NO":"999","APOAPSIS":"548.218","MEAN_MOTION_DOT":"0.00000399","SITE":"AFETR","FILE":"3263295","NORAD_CAT_ID":"47671","EPHEMERIS_TYPE":"0","MEAN_MOTION":"15.06392072","GP_ID":"193179180","CLASSIFICATION_TYPE":"U","OBJECT_ID":"2021-012BD","EPOCH":"2022-01-04T11:06:27.135648","TIME_SYSTEM":"UTC","BSTAR":"0.00004570100000","MEAN_ELEMENT_THEORY":"SGP4","TLE_LINE1":"1 47671U 21012BD  22004.46281407  .00000399  00000-0  45701-4 0  9993","LAUNCH_DATE":"2021-02-16","COUNTRY_CODE":"US","DECAY_DATE":null,"ECCENTRICITY":"0.00014150","INCLINATION":"53.0562","OBJECT_NAME":"STARLINK-2064"},{"OBJECT_ID":"2021-012BE","EPOCH":"2022-01-04T09:00:23.748768","TIME_SYSTEM":"UTC","NORAD_CAT_ID":"47672","EPHEMERIS_TYPE":"0","MEAN_MOTION":"15.06401256","GP_ID":"193179430","CLASSIFICATION_TYPE":"U","FILE":"3263295","ECCENTRICITY":"0.00012420","OBJECT_NAME":"STARLINK-2065","INCLINATION":"53.0559","COUNTRY_CODE":"US","LAUNCH_DATE":"2021-02-16","DECAY_DATE":null,"MEAN_ELEMENT_THEORY":"SGP4","TLE_LINE1":"1 47672U 21012BE  22004.37527487  .00000735  00000-0  68224-4 0  9994","BSTAR":"0.00006822400000","RCS_SIZE":"LARGE","RA_OF_ASC_NODE":"49.0131","PERIOD":"95.592","PERIAPSIS":"546.350","ARG_OF_PERICENTER":"109.7242","REV_AT_EPOCH":"5048","TLE_LINE2":"2 47672  53.0559  49.0131 0001242 109.7242 250.3881 15.06401256 50481","MEAN_ANOMALY":"250.3881","CENTER_NAME":"EARTH","SEMIMAJOR_AXIS":"6925.345","SITE":"AFETR","ELEMENT_SET_NO":"999","APOAPSIS":"548.070","MEAN_MOTION_DOT":"0.00000735","OBJECT_TYPE":"PAYLOAD","REF_FRAME":"TEME","MEAN_MOTION_DDOT":"0.0000000000000"},{"COUNTRY_CODE":"US","LAUNCH_DATE":"2021-02-16","DECAY_DATE":null,"ECCENTRICITY":"0.00012370","INCLINATION":"53.0562","OBJECT_NAME":"STARLINK-2066","BSTAR":"0.00005706400000","MEAN_ELEMENT_THEORY":"SGP4","TLE_LINE1":"1 47673U 21012BF  22004.61761381  .00000569  00000-0  57064-4 0  9990","TIME_SYSTEM":"UTC","EPOCH":"2022-01-04T14:49:21.833184","OBJECT_ID":"2021-012BF","FILE":"3264067","NORAD_CAT_ID":"47673","EPHEMERIS_TYPE":"0","MEAN_MOTION":"15.06403984","GP_ID":"193215786","CLASSIFICATION_TYPE":"U","ELEMENT_SET_NO":"999","MEAN_MOTION_DOT":"0.00000569","APOAPSIS":"548.058","SITE":"AFETR","MEAN_MOTION_DDOT":"0.0000000000000","REF_FRAME":"TEME","OBJECT_TYPE":"PAYLOAD","PERIAPSIS":"546.345","REV_AT_EPOCH":"5039","ARG_OF_PERICENTER":"77.0120","RA_OF_ASC_NODE":"57.9295","PERIOD":"95.592","RCS_SIZE":"LARGE","CENTER_NAME":"EARTH","SEMIMAJOR_AXIS":"6925.336","MEAN_ANOMALY":"283.1007","TLE_LINE2":"2 47673  53.0562  57.9295 0001237  77.0120 283.1007 15.06403984 50395"},{"TIME_SYSTEM":"UTC","OBJECT_ID":"2021-012BG","EPOCH":"2022-01-04T15:10:36.009408","FILE":"3264067","NORAD_CAT_ID":"47674","EPHEMERIS_TYPE":"0","GP_ID":"193214534","MEAN_MOTION":"15.06396590","CLASSIFICATION_TYPE":"U","LAUNCH_DATE":"2021-02-16","COUNTRY_CODE":"US","DECAY_DATE":null,"ECCENTRICITY":"0.00014270","INCLINATION":"53.0554","OBJECT_NAME":"STARLINK-2067","BSTAR":"0.00006529100000","MEAN_ELEMENT_THEORY":"SGP4","TLE_LINE1":"1 47674U 21012BG  22004.63236122  .00000691  00000-0  65291-4 0  9990","PERIAPSIS":"546.236","REV_AT_EPOCH":"5040","ARG_OF_PERICENTER":"78.0043","PERIOD":"95.592","RA_OF_ASC_NODE":"57.8549","RCS_SIZE":"LARGE","CENTER_NAME":"EARTH","SEMIMAJOR_AXIS":"6925.359","MEAN_ANOMALY":"282.1106","TLE_LINE2":"2 47674  53.0554  57.8549 0001427  78.0043 282.1106 15.06396590 50409","ELEMENT_SET_NO":"999","MEAN_MOTION_DOT":"0.00000691","APOAPSIS":"548.212","SITE":"AFETR","MEAN_MOTION_DDOT":"0.0000000000000","REF_FRAME":"TEME","OBJECT_TYPE":"PAYLOAD"},{"CENTER_NAME":"EARTH","SEMIMAJOR_AXIS":"6925.332","TLE_LINE2":"2 47675  53.0554  57.8987 0001405  79.4144 280.7003 15.06405394 50402","MEAN_ANOMALY":"280.7003","PERIAPSIS":"546.224","ARG_OF_PERICENTER":"79.4144","REV_AT_EPOCH":"5040","RCS_SIZE":"LARGE","PERIOD":"95.592","RA_OF_ASC_NODE":"57.8987","REF_FRAME":"TEME","MEAN_MOTION_DDOT":"0.0000000000000","OBJECT_TYPE":"PAYLOAD","ELEMENT_SET_NO":"999","APOAPSIS":"548.170","MEAN_MOTION_DOT":"0.00002390","SITE":"AFETR","FILE":"3264067","EPHEMERIS_TYPE":"0","NORAD_CAT_ID":"47675","MEAN_MOTION":"15.06405394","GP_ID":"193214784","CLASSIFICATION_TYPE":"U","OBJECT_ID":"2021-012BH","EPOCH":"2022-01-04T14:59:59.052192","TIME_SYSTEM":"UTC","BSTAR":"0.00017927000000","MEAN_ELEMENT_THEORY":"SGP4","TLE_LINE1":"1 47675U 21012BH  22004.62498903  .00002390  00000-0  17927-3 0  9997","COUNTRY_CODE":"US","LAUNCH_DATE":"2021-02-16","DECAY_DATE":null,"ECCENTRICITY":"0.00014050","INCLINATION":"53.0554","OBJECT_NAME":"STARLINK-2078"},{"FILE":"3264067","EPHEMERIS_TYPE":"0","NORAD_CAT_ID":"47676","GP_ID":"193215536","CLASSIFICATION_TYPE":"U","MEAN_MOTION":"15.06412315","OBJECT_ID":"2021-012BJ","EPOCH":"2022-01-04T22:00:00.999936","TIME_SYSTEM":"UTC","BSTAR":"-0.00091464000000","MEAN_ELEMENT_THEORY":"SGP4","TLE_LINE1":"1 47676U 21012BJ  22004.91667824 -.00013884  00000-0 -91464-3 0  9990","LAUNCH_DATE":"2021-02-16","COUNTRY_CODE":"US","DECAY_DATE":null,"ECCENTRICITY":"0.00019220","OBJECT_NAME":"STARLINK-2083","INCLINATION":"53.0575","CENTER_NAME":"EARTH","SEMIMAJOR_AXIS":"6925.311","TLE_LINE2":"2 47676  53.0575 306.5770 0001922  48.1831 119.6876 15.06412315  3610","MEAN_ANOMALY":"119.6876","PERIAPSIS":"545.845","ARG_OF_PERICENTER":"48.1831","REV_AT_EPOCH":"361","RCS_SIZE":"LARGE","PERIOD":"95.591","RA_OF_ASC_NODE":"306.5770","REF_FRAME":"TEME","MEAN_MOTION_DDOT":"0.0000000000000","OBJECT_TYPE":"PAYLOAD","ELEMENT_SET_NO":"999","APOAPSIS":"548.507","MEAN_MOTION_DOT":"-0.00013884","SITE":"AFETR"}];
